[{"OBJECT_NAME":"SHIYAN-1 (SY-1)","OBJECT_ID":"2004-012A","EPOCH":"2026-03-09T17:40:34.066560","MEAN_MOTION":15.31043463,"ECCENTRICITY":0.00058726,"INCLINATION":97.8764,"RA_OF_ASC_NODE":140.5238,"ARG_OF_PERICENTER":23.6952,"MEAN_ANOMALY":336.4557,"EPHEMERIS_TYPE":0,"CLASSIFICATION_TYPE":"U","NORAD_CAT_ID":28220,"ELEMENT_SET_NO":999,"REV_AT_EPOCH":19586,"BSTAR":0.00054854449,"MEAN_MOTION_DOT":0.00016393,"MEAN_MOTION_DDOT":0},{"OBJECT_NAME":"STARLINK-32226","OBJECT_ID":"2024-144B","EPOCH":"2026-03-09T16:14:50.229600","MEAN_MOTION":15.30187977,"ECCENTRICITY":0.00010916,"INCLINATION":53.1606,"RA_OF_ASC_NODE":217.4479,"ARG_OF_PERICENTER":78.9057,"MEAN_ANOMALY":281.2067,"EPHEMERIS_TYPE":0,"CLASSIFICATION_TYPE":"U","NORAD_CAT_ID":60426,"ELEMENT_SET_NO":999,"REV_AT_EPOCH":8930,"BSTAR":-4.8245355e-5,"MEAN_MOTION_DOT":-1.787e-5,"MEAN_MOTION_DDOT":0}]
